[
  {
    "OBJECT_NAME": "STARLINK-11116 [DTC]",
    "OBJECT_ID": "24112H",
    "EPOCH": "2025-11-10T21:26:52.404576",
    "MEAN_MOTION": 15.69714174,
    "ECCENTRICITY": 8.46e-05,
    "INCLINATION": 53.1596,
    "RA_OF_ASC_NODE": 131.8253,
    "ARG_OF_PERICENTER": 122.1905,
    "MEAN_ANOMALY": 237.9195,
    "EPHEMERIS_TYPE": 0,
    "CLASSIFICATION_TYPE": "U",
    "NORAD_CAT_ID": 60045,
    "ELEMENT_SET_NO": 999,
    "REV_AT_EPOCH": 8232,
    "BSTAR": 5.2196e-06,
    "MEAN_MOTION_DOT": 4.4e-07,
    "MEAN_MOTION_DDOT": 0.0,
    "TLE_LINE1": "1 60045U 24112H   25314.89366209  .00000044  00000+0  52196-5 0  9998",
    "TLE_LINE2": "2 60045  53.1596 131.8253 0000846 122.1905 237.9195 15.69714174 82323",
    "COMMENT": "Grouped by shell and plane from TLE"
  },
  {
    "OBJECT_NAME": "STARLINK-11155 [DTC]",
    "OBJECT_ID": "24112J",
    "EPOCH": "2025-11-11T04:58:13.605888",
    "MEAN_MOTION": 15.69712731,
    "ECCENTRICITY": 5.74e-05,
    "INCLINATION": 53.1563,
    "RA_OF_ASC_NODE": 130.2232,
    "ARG_OF_PERICENTER": 122.9327,
    "MEAN_ANOMALY": 237.1746,
    "EPHEMERIS_TYPE": 0,
    "CLASSIFICATION_TYPE": "U",
    "NORAD_CAT_ID": 60046,
    "ELEMENT_SET_NO": 999,
    "REV_AT_EPOCH": 8237,
    "BSTAR": 2.3621000000000003e-05,
    "MEAN_MOTION_DOT": 2.275e-05,
    "MEAN_MOTION_DDOT": 0.0,
    "TLE_LINE1": "1 60046U 24112J   25315.20710192  .00002275  00000+0  23621-4 0  9997",
    "TLE_LINE2": "2 60046  53.1563 130.2232 0000574 122.9327 237.1746 15.69712731 82378",
    "COMMENT": "Grouped by shell and plane from TLE"
  },
  {
    "OBJECT_NAME": "STARLINK-11163 [DTC]",
    "OBJECT_ID": "24112K",
    "EPOCH": "2025-11-11T04:51:09.528768",
    "MEAN_MOTION": 15.69716851,
    "ECCENTRICITY": 5.41e-05,
    "INCLINATION": 53.1592,
    "RA_OF_ASC_NODE": 130.1913,
    "ARG_OF_PERICENTER": 59.6896,
    "MEAN_ANOMALY": 300.4175,
    "EPHEMERIS_TYPE": 0,
    "CLASSIFICATION_TYPE": "U",
    "NORAD_CAT_ID": 60047,
    "ELEMENT_SET_NO": 999,
    "REV_AT_EPOCH": 8237,
    "BSTAR": 1.2036e-05,
    "MEAN_MOTION_DOT": 8.71e-06,
    "MEAN_MOTION_DDOT": 0.0,
    "TLE_LINE1": "1 60047U 24112K   25315.20219362  .00000871  00000+0  12036-4 0  9999",
    "TLE_LINE2": "2 60047  53.1592 130.1913 0000541  59.6896 300.4175 15.69716851 82374",
    "COMMENT": "Grouped by shell and plane from TLE"
  },
  {
    "OBJECT_NAME": "STARLINK-11135 [DTC]",
    "OBJECT_ID": "24112L",
    "EPOCH": "2025-11-10T13:13:08.449536",
    "MEAN_MOTION": 15.69715125,
    "ECCENTRICITY": 6.77e-05,
    "INCLINATION": 53.157,
    "RA_OF_ASC_NODE": 133.2496,
    "ARG_OF_PERICENTER": 80.8605,
    "MEAN_ANOMALY": 279.249,
    "EPHEMERIS_TYPE": 0,
    "CLASSIFICATION_TYPE": "U",
    "NORAD_CAT_ID": 60048,
    "ELEMENT_SET_NO": 999,
    "REV_AT_EPOCH": 8227,
    "BSTAR": 1.4312000000000001e-05,
    "MEAN_MOTION_DOT": 1.147e-05,
    "MEAN_MOTION_DDOT": 0.0,
    "TLE_LINE1": "1 60048U 24112L   25314.55079224  .00001147  00000+0  14312-4 0  9994",
    "TLE_LINE2": "2 60048  53.1570 133.2496 0000677  80.8605 279.2490 15.69715125 82270",
    "COMMENT": "Grouped by shell and plane from TLE"
  },
  {
    "OBJECT_NAME": "STARLINK-11151 [DTC]",
    "OBJECT_ID": "24112M",
    "EPOCH": "2025-11-10T11:55:34.836672",
    "MEAN_MOTION": 15.6971422,
    "ECCENTRICITY": 2.61e-05,
    "INCLINATION": 53.1585,
    "RA_OF_ASC_NODE": 133.6107,
    "ARG_OF_PERICENTER": 55.4497,
    "MEAN_ANOMALY": 304.6545,
    "EPHEMERIS_TYPE": 0,
    "CLASSIFICATION_TYPE": "U",
    "NORAD_CAT_ID": 60049,
    "ELEMENT_SET_NO": 999,
    "REV_AT_EPOCH": 8226,
    "BSTAR": 1.0675999999999999e-05,
    "MEAN_MOTION_DOT": 7.06e-06,
    "MEAN_MOTION_DDOT": 0.0,
    "TLE_LINE1": "1 60049U 24112M   25314.49693098  .00000706  00000+0  10676-4 0  9998",
    "TLE_LINE2": "2 60049  53.1585 133.6107 0000261  55.4497 304.6545 15.69714220 82264",
    "COMMENT": "Grouped by shell and plane from TLE"
  },
  {
    "OBJECT_NAME": "STARLINK-11137 [DTC]",
    "OBJECT_ID": "24112N",
    "EPOCH": "2025-11-10T20:58:37.291008",
    "MEAN_MOTION": 15.69710359,
    "ECCENTRICITY": 7.65e-05,
    "INCLINATION": 53.1581,
    "RA_OF_ASC_NODE": 131.6912,
    "ARG_OF_PERICENTER": 134.0534,
    "MEAN_ANOMALY": 226.0547,
    "EPHEMERIS_TYPE": 0,
    "CLASSIFICATION_TYPE": "U",
    "NORAD_CAT_ID": 60050,
    "ELEMENT_SET_NO": 999,
    "REV_AT_EPOCH": 8232,
    "BSTAR": 1.0666000000000001e-05,
    "MEAN_MOTION_DOT": 7.04e-06,
    "MEAN_MOTION_DDOT": 0.0,
    "TLE_LINE1": "1 60050U 24112N   25314.87404272  .00000704  00000+0  10666-4 0  9993",
    "TLE_LINE2": "2 60050  53.1581 131.6912 0000765 134.0534 226.0547 15.69710359 82324",
    "COMMENT": "Grouped by shell and plane from TLE"
  },
  {
    "OBJECT_NAME": "STARLINK-11538 [DTC]",
    "OBJECT_ID": "25006A",
    "EPOCH": "2025-11-11T05:11:45.304512",
    "MEAN_MOTION": 15.71013152,
    "ECCENTRICITY": 0.0002612,
    "INCLINATION": 43.0015,
    "RA_OF_ASC_NODE": 133.6569,
    "ARG_OF_PERICENTER": 281.9731,
    "MEAN_ANOMALY": 78.0844,
    "EPHEMERIS_TYPE": 0,
    "CLASSIFICATION_TYPE": "U",
    "NORAD_CAT_ID": 62554,
    "ELEMENT_SET_NO": 999,
    "REV_AT_EPOCH": 4797,
    "BSTAR": 0.0020296,
    "MEAN_MOTION_DOT": 0.00270605,
    "MEAN_MOTION_DDOT": 0.0,
    "TLE_LINE1": "1 62554U 25006A   25315.21649658  .00270605  00000+0  20296-2 0  9992",
    "TLE_LINE2": "2 62554  43.0015 133.6569 0002612 281.9731  78.0844 15.71013152 47976",
    "COMMENT": "Grouped by shell and plane from TLE"
  },
  {
    "OBJECT_NAME": "STARLINK-11534 [DTC]",
    "OBJECT_ID": "25006B",
    "EPOCH": "2025-11-11T05:19:24.036672",
    "MEAN_MOTION": 15.71019466,
    "ECCENTRICITY": 0.0002421,
    "INCLINATION": 43.0037,
    "RA_OF_ASC_NODE": 133.7002,
    "ARG_OF_PERICENTER": 286.2334,
    "MEAN_ANOMALY": 73.8267,
    "EPHEMERIS_TYPE": 0,
    "CLASSIFICATION_TYPE": "U",
    "NORAD_CAT_ID": 62555,
    "ELEMENT_SET_NO": 999,
    "REV_AT_EPOCH": 4797,
    "BSTAR": 0.0020542,
    "MEAN_MOTION_DOT": 0.00274078,
    "MEAN_MOTION_DDOT": 0.0,
    "TLE_LINE1": "1 62555U 25006B   25315.22180598  .00274078  00000+0  20542-2 0  9999",
    "TLE_LINE2": "2 62555  43.0037 133.7002 0002421 286.2334  73.8267 15.71019466 47975",
    "COMMENT": "Grouped by shell and plane from TLE"
  },
  {
    "OBJECT_NAME": "STARLINK-11515 [DTC]",
    "OBJECT_ID": "25006C",
    "EPOCH": "2025-11-11T04:49:00.617376",
    "MEAN_MOTION": 15.70924975,
    "ECCENTRICITY": 0.0001087,
    "INCLINATION": 42.9992,
    "RA_OF_ASC_NODE": 134.4253,
    "ARG_OF_PERICENTER": 285.8732,
    "MEAN_ANOMALY": 74.2016,
    "EPHEMERIS_TYPE": 0,
    "CLASSIFICATION_TYPE": "U",
    "NORAD_CAT_ID": 62556,
    "ELEMENT_SET_NO": 999,
    "REV_AT_EPOCH": 4796,
    "BSTAR": 0.0022832,
    "MEAN_MOTION_DOT": 0.00304596,
    "MEAN_MOTION_DDOT": 0.0,
    "TLE_LINE1": "1 62556U 25006C   25315.20070159  .00304596  00000+0  22832-2 0  9992",
    "TLE_LINE2": "2 62556  42.9992 134.4253 0001087 285.8732  74.2016 15.70924975 47969",
    "COMMENT": "Grouped by shell and plane from TLE"
  },
  {
    "OBJECT_NAME": "STARLINK-11478 [DTC]",
    "OBJECT_ID": "25006D",
    "EPOCH": "2025-11-10T20:40:37.387776",
    "MEAN_MOTION": 15.70946425,
    "ECCENTRICITY": 0.000226,
    "INCLINATION": 42.9999,
    "RA_OF_ASC_NODE": 136.1685,
    "ARG_OF_PERICENTER": 288.9559,
    "MEAN_ANOMALY": 71.1064,
    "EPHEMERIS_TYPE": 0,
    "CLASSIFICATION_TYPE": "U",
    "NORAD_CAT_ID": 62557,
    "ELEMENT_SET_NO": 999,
    "REV_AT_EPOCH": 4791,
    "BSTAR": 0.0021823000000000003,
    "MEAN_MOTION_DOT": 0.00290894,
    "MEAN_MOTION_DDOT": 0.0,
    "TLE_LINE1": "1 62557U 25006D   25314.86154384  .00290894  00000+0  21823-2 0  9991",
    "TLE_LINE2": "2 62557  42.9999 136.1685 0002260 288.9559  71.1064 15.70946425 47918",
    "COMMENT": "Grouped by shell and plane from TLE"
  },
  {
    "OBJECT_NAME": "STARLINK-11358 [DTC]",
    "OBJECT_ID": "25006E",
    "EPOCH": "2025-11-10T22:04:31.271232",
    "MEAN_MOTION": 15.71032071,
    "ECCENTRICITY": 0.0001573,
    "INCLINATION": 42.9999,
    "RA_OF_ASC_NODE": 135.7424,
    "ARG_OF_PERICENTER": 242.9375,
    "MEAN_ANOMALY": 117.1333,
    "EPHEMERIS_TYPE": 0,
    "CLASSIFICATION_TYPE": "U",
    "NORAD_CAT_ID": 62558,
    "ELEMENT_SET_NO": 999,
    "REV_AT_EPOCH": 4792,
    "BSTAR": 0.0032334000000000004,
    "MEAN_MOTION_DOT": 0.00440761,
    "MEAN_MOTION_DDOT": 0.0,
    "TLE_LINE1": "1 62558U 25006E   25314.91980638  .00440761  00000+0  32334-2 0  9996",
    "TLE_LINE2": "2 62558  42.9999 135.7424 0001573 242.9375 117.1333 15.71032071 47922",
    "COMMENT": "Grouped by shell and plane from TLE"
  },
  {
    "OBJECT_NAME": "STARLINK-11517 [DTC]",
    "OBJECT_ID": "25006F",
    "EPOCH": "2025-11-10T20:48:15.854688",
    "MEAN_MOTION": 15.70934754,
    "ECCENTRICITY": 0.0003002,
    "INCLINATION": 43.0018,
    "RA_OF_ASC_NODE": 136.2116,
    "ARG_OF_PERICENTER": 278.6036,
    "MEAN_ANOMALY": 81.4492,
    "EPHEMERIS_TYPE": 0,
    "CLASSIFICATION_TYPE": "U",
    "NORAD_CAT_ID": 62559,
    "ELEMENT_SET_NO": 999,
    "REV_AT_EPOCH": 4791,
    "BSTAR": 0.0016824000000000001,
    "MEAN_MOTION_DOT": 0.002222,
    "MEAN_MOTION_DDOT": 0.0,
    "TLE_LINE1": "1 62559U 25006F   25314.86685017  .00222200  00000+0  16824-2 0  9996",
    "TLE_LINE2": "2 62559  43.0018 136.2116 0003002 278.6036  81.4492 15.70934754 47916",
    "COMMENT": "Grouped by shell and plane from TLE"
  }
]